start=new Date('2022-07-13T00:00:00.000Z').valueOf();
sats=[{"LAUNCH_DATE":"2021-03-11","CLASSIFICATION_TYPE":"U","SEMIMAJOR_AXIS":"6925.327","TLE_LINE2":"2 47789  53.0548 107.4789 0001524  74.3573 285.7584 15.06407009 75226","MEAN_MOTION_DOT":"0.00001477","ECCENTRICITY":"0.00015240","RA_OF_ASC_NODE":"107.4789","REF_FRAME":"TEME","MEAN_MOTION_DDOT":"0.0000000000000","COUNTRY_CODE":"US","MEAN_ANOMALY":"285.7584","PERIOD":"95.592","ARG_OF_PERICENTER":"74.3573","SITE":"AFETR","TIME_SYSTEM":"UTC","BSTAR":"0.00011803000000","RCS_SIZE":"LARGE","NORAD_CAT_ID":"47789","OBJECT_ID":"2021-018C","INCLINATION":"53.0548","CENTER_NAME":"EARTH","GP_ID":"208006216","DECAY_DATE":null,"REV_AT_EPOCH":"7522","APOAPSIS":"548.247","MEAN_ELEMENT_THEORY":"SGP4","OBJECT_NAME":"STARLINK-2315","FILE":"3512598","ELEMENT_SET_NO":"999","MEAN_MOTION":"15.06407009","PERIAPSIS":"546.137","EPOCH":"2022-07-13T01:34:33.417120","TLE_LINE1":"1 47789U 21018C   22194.06566455  .00001477  00000-0  11803-3 0  9997","EPHEMERIS_TYPE":"0","OBJECT_TYPE":"PAYLOAD"},{"INCLINATION":"53.0544","CENTER_NAME":"EARTH","DECAY_DATE":null,"REV_AT_EPOCH":"7568","APOAPSIS":"548.302","GP_ID":"207998903","MEAN_ELEMENT_THEORY":"SGP4","OBJECT_NAME":"STARLINK-2319","FILE":"3512432","PERIAPSIS":"546.109","EPOCH":"2022-07-12T20:12:07.336512","OBJECT_TYPE":"PAYLOAD","TLE_LINE1":"1 47790U 21018D   22193.84175158  .00001186  00000-0  98479-4 0  9992","EPHEMERIS_TYPE":"0","ELEMENT_SET_NO":"999","MEAN_MOTION":"15.06402650","MEAN_MOTION_DOT":"0.00001186","ECCENTRICITY":"0.00015830","RA_OF_ASC_NODE":"98.4816","LAUNCH_DATE":"2021-03-11","CLASSIFICATION_TYPE":"U","SEMIMAJOR_AXIS":"6925.340","TLE_LINE2":"2 47790  53.0544  98.4816 0001583  70.1912 289.9248 15.06402650 75680","COUNTRY_CODE":"US","MEAN_ANOMALY":"289.9248","PERIOD":"95.592","ARG_OF_PERICENTER":"70.1912","SITE":"AFETR","REF_FRAME":"TEME","MEAN_MOTION_DDOT":"0.0000000000000","RCS_SIZE":"LARGE","TIME_SYSTEM":"UTC","BSTAR":"0.00009847900000","NORAD_CAT_ID":"47790","OBJECT_ID":"2021-018D"},{"MEAN_ELEMENT_THEORY":"SGP4","FILE":"3512499","OBJECT_NAME":"STARLINK-2322","EPOCH":"2022-07-13T04:37:40.936224","TLE_LINE1":"1 47791U 21018E   22194.19283491  .00004366  00000-0  31166-3 0  9994","OBJECT_TYPE":"PAYLOAD","EPHEMERIS_TYPE":"0","PERIAPSIS":"546.110","MEAN_MOTION":"15.06420983","ELEMENT_SET_NO":"999","CENTER_NAME":"EARTH","INCLINATION":"53.0528","APOAPSIS":"548.189","DECAY_DATE":null,"REV_AT_EPOCH":"7496","GP_ID":"208003470","RCS_SIZE":"LARGE","BSTAR":"0.00031166000000","TIME_SYSTEM":"UTC","NORAD_CAT_ID":"47791","OBJECT_ID":"2021-018E","RA_OF_ASC_NODE":"126.8923","MEAN_MOTION_DOT":"0.00004366","ECCENTRICITY":"0.00015010","SEMIMAJOR_AXIS":"6925.284","CLASSIFICATION_TYPE":"U","TLE_LINE2":"2 47791  53.0528 126.8923 0001501  75.0580 285.0575 15.06420983 74962","LAUNCH_DATE":"2021-03-11","PERIOD":"95.591","SITE":"AFETR","ARG_OF_PERICENTER":"75.0580","COUNTRY_CODE":"US","MEAN_ANOMALY":"285.0575","REF_FRAME":"TEME","MEAN_MOTION_DDOT":"0.0000000000000"},{"TLE_LINE1":"1 47792U 21018F   22193.80766081  .00002255  00000-0  17022-3 0  9993","OBJECT_TYPE":"PAYLOAD","EPHEMERIS_TYPE":"0","EPOCH":"2022-07-12T19:23:01.893984","PERIAPSIS":"545.884","MEAN_MOTION":"15.06410723","ELEMENT_SET_NO":"999","FILE":"3512432","OBJECT_NAME":"STARLINK-2334","MEAN_ELEMENT_THEORY":"SGP4","APOAPSIS":"548.478","REV_AT_EPOCH":"7553","DECAY_DATE":null,"GP_ID":"207998417","INCLINATION":"53.0553","CENTER_NAME":"EARTH","OBJECT_ID":"2021-018F","NORAD_CAT_ID":"47792","RCS_SIZE":"LARGE","BSTAR":"0.00017022000000","TIME_SYSTEM":"UTC","SITE":"AFETR","ARG_OF_PERICENTER":"60.9543","PERIOD":"95.591","MEAN_ANOMALY":"299.1634","COUNTRY_CODE":"US","MEAN_MOTION_DDOT":"0.0000000000000","REF_FRAME":"TEME","RA_OF_ASC_NODE":"108.6333","ECCENTRICITY":"0.00018730","MEAN_MOTION_DOT":"0.00002255","TLE_LINE2":"2 47792  53.0553 108.6333 0001873  60.9543 299.1634 15.06410723 75535","SEMIMAJOR_AXIS":"6925.316","CLASSIFICATION_TYPE":"U","LAUNCH_DATE":"2021-03-11"},{"REF_FRAME":"TEME","MEAN_MOTION_DDOT":"0.0000000000000","ARG_OF_PERICENTER":"67.3321","SITE":"AFETR","PERIOD":"95.592","MEAN_ANOMALY":"292.7839","COUNTRY_CODE":"US","TLE_LINE2":"2 47793  53.0548 110.0605 0001619  67.3321 292.7839 15.06401935 75139","CLASSIFICATION_TYPE":"U","SEMIMAJOR_AXIS":"6925.343","LAUNCH_DATE":"2021-03-11","RA_OF_ASC_NODE":"110.0605","ECCENTRICITY":"0.00016190","MEAN_MOTION_DOT":"0.00001053","OBJECT_ID":"2021-018G","NORAD_CAT_ID":"47793","BSTAR":"0.00008959800000","TIME_SYSTEM":"UTC","RCS_SIZE":"LARGE","GP_ID":"207968211","APOAPSIS":"548.329","REV_AT_EPOCH":"7513","DECAY_DATE":null,"INCLINATION":"53.0548","CENTER_NAME":"EARTH","MEAN_MOTION":"15.06401935","ELEMENT_SET_NO":"999","TLE_LINE1":"1 47793U 21018G   22193.49066383  .00001053  00000-0  89598-4 0  9990","OBJECT_TYPE":"PAYLOAD","EPHEMERIS_TYPE":"0","EPOCH":"2022-07-12T11:46:33.354912","PERIAPSIS":"546.086","OBJECT_NAME":"STARLINK-2338","FILE":"3512184","MEAN_ELEMENT_THEORY":"SGP4"},{"MEAN_ELEMENT_THEORY":"SGP4","FILE":"3512432","OBJECT_NAME":"STARLINK-2341","MEAN_MOTION":"15.06431547","ELEMENT_SET_NO":"999","EPOCH":"2022-07-12T19:49:34.606272","TLE_LINE1":"1 47794U 21018H   22193.82609498  .00013488  00000-0  92188-3 0  9991","EPHEMERIS_TYPE":"0","OBJECT_TYPE":"PAYLOAD","PERIAPSIS":"545.852","INCLINATION":"53.0540","CENTER_NAME":"EARTH","GP_ID":"207999403","APOAPSIS":"548.382","DECAY_DATE":null,"REV_AT_EPOCH":"7553","BSTAR":"0.00092188000000","TIME_SYSTEM":"UTC","RCS_SIZE":"LARGE","NORAD_CAT_ID":"47794","OBJECT_ID":"2021-018H","CLASSIFICATION_TYPE":"U","SEMIMAJOR_AXIS":"6925.252","TLE_LINE2":"2 47794  53.0540 108.5537 0001827  60.1934 299.9236 15.06431547 75536","LAUNCH_DATE":"2021-03-11","RA_OF_ASC_NODE":"108.5537","MEAN_MOTION_DOT":"0.00013488","ECCENTRICITY":"0.00018270","MEAN_MOTION_DDOT":"0.0000000000000","REF_FRAME":"TEME","PERIOD":"95.590","ARG_OF_PERICENTER":"60.1934","SITE":"AFETR","COUNTRY_CODE":"US","MEAN_ANOMALY":"299.9236"},{"SEMIMAJOR_AXIS":"6925.281","CLASSIFICATION_TYPE":"U","TLE_LINE2":"2 47795  53.0544 107.1135 0001342  79.0086 281.1054 15.06421957 75231","LAUNCH_DATE":"2021-03-11","RA_OF_ASC_NODE":"107.1135","MEAN_MOTION_DOT":"0.00008812","ECCENTRICITY":"0.00013420","REF_FRAME":"TEME","MEAN_MOTION_DDOT":"0.0000000000000","PERIOD":"95.591","ARG_OF_PERICENTER":"79.0086","SITE":"AFETR","COUNTRY_CODE":"US","MEAN_ANOMALY":"281.1054","BSTAR":"0.00060937000000","TIME_SYSTEM":"UTC","RCS_SIZE":"LARGE","NORAD_CAT_ID":"47795","OBJECT_ID":"2021-018J","INCLINATION":"53.0544","CENTER_NAME":"EARTH","GP_ID":"208004016","APOAPSIS":"548.076","DECAY_DATE":null,"REV_AT_EPOCH":"7523","MEAN_ELEMENT_THEORY":"SGP4","OBJECT_NAME":"STARLINK-2347","FILE":"3512505","MEAN_MOTION":"15.06421957","ELEMENT_SET_NO":"999","EPOCH":"2022-07-13T03:31:20.020800","TLE_LINE1":"1 47795U 21018J   22194.14675950  .00008812  00000-0  60937-3 0  9996","EPHEMERIS_TYPE":"0","OBJECT_TYPE":"PAYLOAD","PERIAPSIS":"546.217"},{"RA_OF_ASC_NODE":"110.0247","ECCENTRICITY":"0.00016370","MEAN_MOTION_DOT":"0.00017319","TLE_LINE2":"2 47796  53.0536 110.0247 0001637  63.1135 297.0022 15.06423565 75481","CLASSIFICATION_TYPE":"U","SEMIMAJOR_AXIS":"6925.276","LAUNCH_DATE":"2021-03-11","SITE":"AFETR","ARG_OF_PERICENTER":"63.1135","PERIOD":"95.591","MEAN_ANOMALY":"297.0022","COUNTRY_CODE":"US","MEAN_MOTION_DDOT":"0.0000000000000","REF_FRAME":"TEME","RCS_SIZE":"LARGE","BSTAR":"0.00117800000000","TIME_SYSTEM":"UTC","OBJECT_ID":"2021-018K","NORAD_CAT_ID":"47796","CENTER_NAME":"EARTH","INCLINATION":"53.0536","APOAPSIS":"548.275","REV_AT_EPOCH":"7548","DECAY_DATE":null,"GP_ID":"207969462","OBJECT_NAME":"STARLINK-2373","FILE":"3512184","MEAN_ELEMENT_THEORY":"SGP4","TLE_LINE1":"1 47796U 21018K   22193.49804937  .00017319  00000-0  11780-2 0  9996","EPHEMERIS_TYPE":"0","OBJECT_TYPE":"PAYLOAD","EPOCH":"2022-07-12T11:57:11.465568","PERIAPSIS":"546.008","MEAN_MOTION":"15.06423565","ELEMENT_SET_NO":"999"},{"NORAD_CAT_ID":"47797","OBJECT_ID":"2021-018L","RCS_SIZE":"LARGE","TIME_SYSTEM":"UTC","BSTAR":"0.00114310000000","COUNTRY_CODE":"US","MEAN_ANOMALY":"285.9221","PERIOD":"95.590","ARG_OF_PERICENTER":"74.1941","SITE":"AFETR","MEAN_MOTION_DDOT":"0.0000000000000","REF_FRAME":"TEME","MEAN_MOTION_DOT":"0.00016803","ECCENTRICITY":"0.00015670","RA_OF_ASC_NODE":"133.3664","LAUNCH_DATE":"2021-03-11","CLASSIFICATION_TYPE":"U","SEMIMAJOR_AXIS":"6925.235","TLE_LINE2":"2 47797  53.0549 133.3664 0001567  74.1941 285.9221 15.06437084 75181","PERIAPSIS":"546.015","EPOCH":"2022-07-12T20:47:18.110112","OBJECT_TYPE":"PAYLOAD","TLE_LINE1":"1 47797U 21018L   22193.86618183  .00016803  00000-0  11431-2 0  9994","EPHEMERIS_TYPE":"0","ELEMENT_SET_NO":"999","MEAN_MOTION":"15.06437084","MEAN_ELEMENT_THEORY":"SGP4","OBJECT_NAME":"STARLINK-2377","FILE":"3512432","DECAY_DATE":null,"REV_AT_EPOCH":"7518","APOAPSIS":"548.185","GP_ID":"207998670","CENTER_NAME":"EARTH","INCLINATION":"53.0549"},{"SITE":"AFETR","ARG_OF_PERICENTER":"60.9503","PERIOD":"95.591","MEAN_ANOMALY":"299.1637","COUNTRY_CODE":"US","MEAN_MOTION_DDOT":"0.0000000000000","REF_FRAME":"TEME","RA_OF_ASC_NODE":"106.9999","ECCENTRICITY":"0.00015100","MEAN_MOTION_DOT":"0.00001327","TLE_LINE2":"2 47798  53.0543 106.9999 0001510  60.9503 299.1637 15.06410331 75238","SEMIMAJOR_AXIS":"6925.317","CLASSIFICATION_TYPE":"U","LAUNCH_DATE":"2021-03-11","OBJECT_ID":"2021-018M","NORAD_CAT_ID":"47798","RCS_SIZE":"LARGE","BSTAR":"0.00010792000000","TIME_SYSTEM":"UTC","APOAPSIS":"548.228","REV_AT_EPOCH":"7523","DECAY_DATE":null,"GP_ID":"208004585","CENTER_NAME":"EARTH","INCLINATION":"53.0543","TLE_LINE1":"1 47798U 21018M   22194.17256722  .00001327  00000-0  10792-3 0  9992","EPHEMERIS_TYPE":"0","OBJECT_TYPE":"PAYLOAD","EPOCH":"2022-07-13T04:08:29.807808","PERIAPSIS":"546.136","MEAN_MOTION":"15.06410331","ELEMENT_SET_NO":"999","FILE":"3512511","OBJECT_NAME":"STARLINK-2379","MEAN_ELEMENT_THEORY":"SGP4"}];
